[{"OBJECT_NAME":"STARLINK-34159","OBJECT_ID":"2025-099A","EPOCH":"2026-03-09T07:14:34.490976","MEAN_MOTION":15.27585855,"ECCENTRICITY":7.115e-5,"INCLINATION":42.9985,"RA_OF_ASC_NODE":178.7036,"ARG_OF_PERICENTER":166.2044,"MEAN_ANOMALY":193.8827,"EPHEMERIS_TYPE":0,"CLASSIFICATION_TYPE":"U","NORAD_CAT_ID":63952,"ELEMENT_SET_NO":999,"REV_AT_EPOCH":4726,"BSTAR":0.0012653688,"MEAN_MOTION_DOT":0.00034728,"MEAN_MOTION_DDOT":0},{"OBJECT_NAME":"COSMOS 2588","OBJECT_ID":"2025-109A","EPOCH":"2026-03-09T19:28:59.107008","MEAN_MOTION":15.29122656,"ECCENTRICITY":0.0005019,"INCLINATION":72.9704,"RA_OF_ASC_NODE":73.5401,"ARG_OF_PERICENTER":308.678,"MEAN_ANOMALY":51.3966,"EPHEMERIS_TYPE":0,"CLASSIFICATION_TYPE":"U","NORAD_CAT_ID":64095,"ELEMENT_SET_NO":999,"REV_AT_EPOCH":4442,"BSTAR":0.00032611,"MEAN_MOTION_DOT":9.169e-5,"MEAN_MOTION_DDOT":0}]
